STARLINK-33768          
1 63454U 25069X   25271.04347529  .00036901  00000+0  12519-2 0  9993
2 63454  53.1579 177.8809 0000771  41.2481 318.8578 15.30197884 28500
STARLINK-33761          
1 63455U 25069Y   25270.90334914  .00015902  00000+0  54782-3 0  9999
2 63455  53.1572 178.4287 0000850  93.1045 267.0053 15.30203020 28481
STARLINK-33737          
1 63456U 25069Z   25271.04030889  .00055922  00000+0  18859-2 0  9990
2 63456  53.1574 177.8549 0000824  90.5834 269.5261 15.30203600 28398
STARLINK-33795          
1 63457U 25069AA  25271.06775068  .00046767  00000+0  15809-2 0  9997
2 63457  53.1592 178.0412 0001297  57.8206 302.2920 15.30206345 28391
STARLINK-33756          
1 63458U 25069AB  25271.00560095  .00007600  00000+0  26849-3 0  9994
2 63458  53.1586 178.3527 0001754  36.9454 323.1668 15.30197612 28494
STARLINK-33780          
1 63459U 25069AC  25271.03714484  .00042137  00000+0  14270-2 0  9999
2 63459  53.1578 177.8365 0000990  69.9749 290.1358 15.30193900 28398
STARLINK-33679          
1 63460U 25070A   25270.55348014  .00035738  00000+0  13007-2 0  9997
2 63460  43.0017 101.4187 0003051 284.2993  75.7520 15.27608904 28024
STARLINK-33706          
1 63461U 25070B   25270.55732976  .00038714  00000+0  14077-2 0  9997
2 63461  43.0014 101.4171 0002649 287.3405  72.7156 15.27607126 28026
STARLINK-33691          
1 63462U 25070C   25270.89824707  .00044171  00000+0  16040-2 0  9995
2 63462  43.0035  98.8109 0002053 273.4102  86.6515 15.27600881 28034
STARLINK-33696          
1 63463U 25070D   25270.53163041  .00049385  00000+0  17885-2 0  9994
2 63463  43.0029 101.2218 0006762 289.9117  70.1006 15.27630306 28024
STARLINK-33701          
1 63464U 25070E   25270.88811981  .00045008  00000+0  16341-2 0  9990
2 63464  43.0020  99.5983 0001565 266.3166  93.7507 15.27601243 28073
STARLINK-33685          
1 63465U 25070F   25268.97390508  .00042529  00000+0  15430-2 0  9998
2 63465  43.0000 110.1671 0001160 297.6058  62.4676 15.27646336 27783
STARLINK-33654          
1 63466U 25070G   25270.92522861  .00035761  00000+0  13012-2 0  9990
2 63466  43.0077  99.0118 0003635 272.6809  87.3627 15.27614052 28081
STARLINK-33697          
1 63467U 25070H   25269.88160807  .00048925  00000+0  17705-2 0  9991
2 63467  42.9984 104.9500 0004794 245.2660 114.7693 15.27667680 27921
STARLINK-33720          
1 63468U 25070J   25270.92907793  .00034297  00000+0  12487-2 0  9991
2 63468  43.0044  99.0384 0002840 259.9639 100.0892 15.27613879 28081
STARLINK-33587          
1 63469U 25070K   25270.58673347  .00031942  00000+0  11646-2 0  9999
2 63469  42.9993 100.7705 0002833 287.7141  72.3401 15.27594934 28031
