[{"OBJECT_NAME":"STARLINK-33768","OBJECT_ID":"2025-069X","EPOCH":"2025-09-28T01:02:36.265056","MEAN_MOTION":15.30197884,"ECCENTRICITY":7.715e-5,"INCLINATION":53.1579,"RA_OF_ASC_NODE":177.8809,"ARG_OF_PERICENTER":41.2481,"MEAN_ANOMALY":318.8578,"EPHEMERIS_TYPE":0,"CLASSIFICATION_TYPE":"U","NORAD_CAT_ID":63454,"ELEMENT_SET_NO":999,"REV_AT_EPOCH":2850,"BSTAR":0.0012519122,"MEAN_MOTION_DOT":0.00036901,"MEAN_MOTION_DDOT":0},{"OBJECT_NAME":"STARLINK-33761","OBJECT_ID":"2025-069Y","EPOCH":"2025-09-27T21:40:49.365696","MEAN_MOTION":15.3020302,"ECCENTRICITY":8.5e-5,"INCLINATION":53.1572,"RA_OF_ASC_NODE":178.4287,"ARG_OF_PERICENTER":93.1045,"MEAN_ANOMALY":267.0053,"EPHEMERIS_TYPE":0,"CLASSIFICATION_TYPE":"U","NORAD_CAT_ID":63455,"ELEMENT_SET_NO":999,"REV_AT_EPOCH":2848,"BSTAR":0.00054782015,"MEAN_MOTION_DOT":0.00015902,"MEAN_MOTION_DDOT":0},{"OBJECT_NAME":"STARLINK-33737","OBJECT_ID":"2025-069Z","EPOCH":"2025-09-28T00:58:02.688096","MEAN_MOTION":15.302036,"ECCENTRICITY":8.245e-5,"INCLINATION":53.1574,"RA_OF_ASC_NODE":177.8549,"ARG_OF_PERICENTER":90.5834,"MEAN_ANOMALY":269.5261,"EPHEMERIS_TYPE":0,"CLASSIFICATION_TYPE":"U","NORAD_CAT_ID":63456,"ELEMENT_SET_NO":999,"REV_AT_EPOCH":2839,"BSTAR":0.0018858561,"MEAN_MOTION_DOT":0.00055922,"MEAN_MOTION_DDOT":0},{"OBJECT_NAME":"STARLINK-33795","OBJECT_ID":"2025-069AA","EPOCH":"2025-09-28T01:37:33.658752","MEAN_MOTION":15.30206345,"ECCENTRICITY":0.00012976,"INCLINATION":53.1592,"RA_OF_ASC_NODE":178.0412,"ARG_OF_PERICENTER":57.8206,"MEAN_ANOMALY":302.292,"EPHEMERIS_TYPE":0,"CLASSIFICATION_TYPE":"U","NORAD_CAT_ID":63457,"ELEMENT_SET_NO":999,"REV_AT_EPOCH":2839,"BSTAR":0.0015809138,"MEAN_MOTION_DOT":0.00046767,"MEAN_MOTION_DDOT":0},{"OBJECT_NAME":"STARLINK-33756","OBJECT_ID":"2025-069AB","EPOCH":"2025-09-28T00:08:03.922080","MEAN_MOTION":15.30197612,"ECCENTRICITY":0.00017542,"INCLINATION":53.1586,"RA_OF_ASC_NODE":178.3527,"ARG_OF_PERICENTER":36.9454,"MEAN_ANOMALY":323.1668,"EPHEMERIS_TYPE":0,"CLASSIFICATION_TYPE":"U","NORAD_CAT_ID":63458,"ELEMENT_SET_NO":999,"REV_AT_EPOCH":2849,"BSTAR":0.00026849409,"MEAN_MOTION_DOT":7.6e-5,"MEAN_MOTION_DDOT":0},{"OBJECT_NAME":"STARLINK-33780","OBJECT_ID":"2025-069AC","EPOCH":"2025-09-28T00:53:29.314176","MEAN_MOTION":15.301939,"ECCENTRICITY":9.9e-5,"INCLINATION":53.1578,"RA_OF_ASC_NODE":177.8365,"ARG_OF_PERICENTER":69.9749,"MEAN_ANOMALY":290.1358,"EPHEMERIS_TYPE":0,"CLASSIFICATION_TYPE":"U","NORAD_CAT_ID":63459,"ELEMENT_SET_NO":999,"REV_AT_EPOCH":2839,"BSTAR":0.0014270352,"MEAN_MOTION_DOT":0.00042137,"MEAN_MOTION_DDOT":0},{"OBJECT_NAME":"STARLINK-33679","OBJECT_ID":"2025-070A","EPOCH":"2025-09-27T13:17:00.684096","MEAN_MOTION":15.27608904,"ECCENTRICITY":0.00030517,"INCLINATION":43.0017,"RA_OF_ASC_NODE":101.4187,"ARG_OF_PERICENTER":284.2993,"MEAN_ANOMALY":75.752,"EPHEMERIS_TYPE":0,"CLASSIFICATION_TYPE":"U","NORAD_CAT_ID":63460,"ELEMENT_SET_NO":999,"REV_AT_EPOCH":2802,"BSTAR":0.001300676,"MEAN_MOTION_DOT":0.00035738,"MEAN_MOTION_DDOT":0},{"OBJECT_NAME":"STARLINK-33706","OBJECT_ID":"2025-070B","EPOCH":"2025-09-27T13:22:33.291264","MEAN_MOTION":15.27607126,"ECCENTRICITY":0.00026496,"INCLINATION":43.0014,"RA_OF_ASC_NODE":101.4171,"ARG_OF_PERICENTER":287.3405,"MEAN_ANOMALY":72.7156,"EPHEMERIS_TYPE":0,"CLASSIFICATION_TYPE":"U","NORAD_CAT_ID":63461,"ELEMENT_SET_NO":999,"REV_AT_EPOCH":2802,"BSTAR":0.0014077492,"MEAN_MOTION_DOT":0.00038714,"MEAN_MOTION_DDOT":0},{"OBJECT_NAME":"STARLINK-33691","OBJECT_ID":"2025-070C","EPOCH":"2025-09-27T21:33:28.546848","MEAN_MOTION":15.27600881,"ECCENTRICITY":0.00020537,"INCLINATION":43.0035,"RA_OF_ASC_NODE":98.8109,"ARG_OF_PERICENTER":273.4102,"MEAN_ANOMALY":86.6515,"EPHEMERIS_TYPE":0,"CLASSIFICATION_TYPE":"U","NORAD_CAT_ID":63462,"ELEMENT_SET_NO":999,"REV_AT_EPOCH":2803,"BSTAR":0.0016040138,"MEAN_MOTION_DOT":0.00044171,"MEAN_MOTION_DDOT":0},{"OBJECT_NAME":"STARLINK-33696","OBJECT_ID":"2025-070D","EPOCH":"2025-09-27T12:45:32.867424","MEAN_MOTION":15.27630306,"ECCENTRICITY":0.00067622,"INCLINATION":43.0029,"RA_OF_ASC_NODE":101.2218,"ARG_OF_PERICENTER":289.9117,"MEAN_ANOMALY":70.1006,"EPHEMERIS_TYPE":0,"CLASSIFICATION_TYPE":"U","NORAD_CAT_ID":63463,"ELEMENT_SET_NO":999,"REV_AT_EPOCH":2802,"BSTAR":0.0017884555,"MEAN_MOTION_DOT":0.00049385,"MEAN_MOTION_DDOT":0},{"OBJECT_NAME":"STARLINK-33701","OBJECT_ID":"2025-070E","EPOCH":"2025-09-27T21:18:53.551584","MEAN_MOTION":15.27601243,"ECCENTRICITY":0.00015658,"INCLINATION":43.002,"RA_OF_ASC_NODE":99.5983,"ARG_OF_PERICENTER":266.3166,"MEAN_ANOMALY":93.7507,"EPHEMERIS_TYPE":0,"CLASSIFICATION_TYPE":"U","NORAD_CAT_ID":63464,"ELEMENT_SET_NO":999,"REV_AT_EPOCH":2807,"BSTAR":0.0016340641,"MEAN_MOTION_DOT":0.00045008,"MEAN_MOTION_DDOT":0},{"OBJECT_NAME":"STARLINK-33685","OBJECT_ID":"2025-070F","EPOCH":"2025-09-25T23:22:25.398912","MEAN_MOTION":15.27646336,"ECCENTRICITY":0.000116,"INCLINATION":43,"RA_OF_ASC_NODE":110.1671,"ARG_OF_PERICENTER":297.6058,"MEAN_ANOMALY":62.4676,"EPHEMERIS_TYPE":0,"CLASSIFICATION_TYPE":"U","NORAD_CAT_ID":63465,"ELEMENT_SET_NO":999,"REV_AT_EPOCH":2778,"BSTAR":0.0015429794,"MEAN_MOTION_DOT":0.00042529,"MEAN_MOTION_DDOT":0},{"OBJECT_NAME":"STARLINK-33654","OBJECT_ID":"2025-070G","EPOCH":"2025-09-27T22:12:19.751904","MEAN_MOTION":15.27614052,"ECCENTRICITY":0.00036356,"INCLINATION":43.0077,"RA_OF_ASC_NODE":99.0118,"ARG_OF_PERICENTER":272.6809,"MEAN_ANOMALY":87.3627,"EPHEMERIS_TYPE":0,"CLASSIFICATION_TYPE":"U","NORAD_CAT_ID":63466,"ELEMENT_SET_NO":999,"REV_AT_EPOCH":2808,"BSTAR":0.0013012499,"MEAN_MOTION_DOT":0.00035761,"MEAN_MOTION_DDOT":0},{"OBJECT_NAME":"STARLINK-33697","OBJECT_ID":"2025-070H","EPOCH":"2025-09-26T21:09:30.937248","MEAN_MOTION":15.2766768,"ECCENTRICITY":0.00047943,"INCLINATION":42.9984,"RA_OF_ASC_NODE":104.95,"ARG_OF_PERICENTER":245.266,"MEAN_ANOMALY":114.7693,"EPHEMERIS_TYPE":0,"CLASSIFICATION_TYPE":"U","NORAD_CAT_ID":63467,"ELEMENT_SET_NO":999,"REV_AT_EPOCH":2792,"BSTAR":0.0017704828,"MEAN_MOTION_DOT":0.00048925,"MEAN_MOTION_DDOT":0},{"OBJECT_NAME":"STARLINK-33720","OBJECT_ID":"2025-070J","EPOCH":"2025-09-27T22:17:52.333152","MEAN_MOTION":15.27613879,"ECCENTRICITY":0.00028402,"INCLINATION":43.0044,"RA_OF_ASC_NODE":99.0384,"ARG_OF_PERICENTER":259.9639,"MEAN_ANOMALY":100.0892,"EPHEMERIS_TYPE":0,"CLASSIFICATION_TYPE":"U","NORAD_CAT_ID":63468,"ELEMENT_SET_NO":999,"REV_AT_EPOCH":2808,"BSTAR":0.0012487144,"MEAN_MOTION_DOT":0.00034297,"MEAN_MOTION_DDOT":0},{"OBJECT_NAME":"STARLINK-33587","OBJECT_ID":"2025-070K","EPOCH":"2025-09-27T14:04:53.771808","MEAN_MOTION":15.27594934,"ECCENTRICITY":0.00028333,"INCLINATION":42.9993,"RA_OF_ASC_NODE":100.7705,"ARG_OF_PERICENTER":287.7141,"MEAN_ANOMALY":72.3401,"EPHEMERIS_TYPE":0,"CLASSIFICATION_TYPE":"U","NORAD_CAT_ID":63469,"ELEMENT_SET_NO":999,"REV_AT_EPOCH":2803,"BSTAR":0.0011646372,"MEAN_MOTION_DOT":0.00031942,"MEAN_MOTION_DDOT":0}]
